ORBCOMM-X               
1 21576U 91050C   24360.42007412  .00000984  00000+0  30687-3 0  9998
2 21576  98.3684  64.3929 0003613  10.5764 349.5502 14.42993292757271
ORBCOMM FM01            
1 23545U 95017A   24360.14101120  .00015727  00000+0  17941-2 0  9991
2 23545  69.9640 146.9968 0006517 250.5838 109.4611 14.86166714586968
ORBCOMM FM02            
1 23546U 95017B   24360.54601014  .00020041  00000+0  22788-2 0  9993
2 23546  69.9654 165.6911 0008130 241.2685 118.7651 14.86219038586617
ORBCOMM FM08            
1 25112U 97084A   24359.78818932  .00005180  00000+0  15216-2 0  9998
2 25112  45.0125 124.3986 0005341 103.8562 256.2884 14.44628938416141
ORBCOMM FM10            
1 25113U 97084B   24360.50584832  .00004571  00000+0  13525-2 0  9994
2 25113  45.0138 123.0536 0002662  68.9802 291.1333 14.44471660416408
ORBCOMM FM11            
1 25114U 97084C   24359.78991601  .00004731  00000+0  14049-2 0  9999
2 25114  45.0121 126.8147 0003645  64.4007 295.7220 14.44242829416251
ORBCOMM FM12            
1 25115U 97084D   24360.51507136  .00004716  00000+0  14001-2 0  9990
2 25115  45.0131 123.1018 0002518  70.0676 290.0445 14.44253741416390
ORBCOMM FM09            
1 25116U 97084E   24360.46507171  .00005041  00000+0  14961-2 0  9991
2 25116  45.0134 124.1214 0003650  43.8034 316.3106 14.44171032416384
